LEMUR-2-PETERG          
1 42841U 17042S   26068.48235713  .00023240  00000+0  81076-3 0  9993
2 42841  97.3980 253.6596 0003700 341.6938  18.4169 15.29611459473171
STARLINK-32371          
1 60916U 24154P   26068.87732214 -.00004119  00000+0 -12700-3 0  9993
2 60916  53.1602 282.9720 0001275  70.4855 289.6283 15.30200468 86365
